{"status":1,"data":[{"id":"340000","parent_id":"0","name":"\u5b89\u5fbd\u7701","first_letter":"A","name_en":"anhui"},{"id":"820000","parent_id":"0","name":"\u6fb3\u95e8\u7279\u522b\u884c\u653f\u533a","first_letter":"A","name_en":"aomentebeixingzhengqu"},{"id":"110000","parent_id":"0","name":"\u5317\u4eac\u5e02","first_letter":"B","name_en":"beijing"},{"id":"500000","parent_id":"0","name":"\u91cd\u5e86\u5e02","first_letter":"C","name_en":"zhongqing"},{"id":"350000","parent_id":"0","name":"\u798f\u5efa\u7701","first_letter":"F","name_en":"fujian"},{"id":"440000","parent_id":"0","name":"\u5e7f\u4e1c\u7701","first_letter":"G","name_en":"guangdong"},{"id":"450000","parent_id":"0","name":"\u5e7f\u897f\u58ee\u65cf\u81ea\u6cbb\u533a","first_letter":"G","name_en":"guangxizhuangzuzizhiqu"},{"id":"520000","parent_id":"0","name":"\u8d35\u5dde\u7701","first_letter":"G","name_en":"guizhou"},{"id":"910000","parent_id":"0","name":"\u56fd\u5916","first_letter":"G","name_en":"guowai"},{"id":"620000","parent_id":"0","name":"\u7518\u8083\u7701","first_letter":"G","name_en":"gansu"},{"id":"460000","parent_id":"0","name":"\u6d77\u5357\u7701","first_letter":"H","name_en":"hainan"},{"id":"410000","parent_id":"0","name":"\u6cb3\u5357\u7701","first_letter":"H","name_en":"henan"},{"id":"420000","parent_id":"0","name":"\u6e56\u5317\u7701","first_letter":"H","name_en":"hubei"},{"id":"430000","parent_id":"0","name":"\u6e56\u5357\u7701","first_letter":"H","name_en":"hunan"},{"id":"130000","parent_id":"0","name":"\u6cb3\u5317\u7701","first_letter":"H","name_en":"hebei"},{"id":"230000","parent_id":"0","name":"\u9ed1\u9f99\u6c5f\u7701","first_letter":"H","name_en":"heilongjiang"},{"id":"220000","parent_id":"0","name":"\u5409\u6797\u7701","first_letter":"J","name_en":"jilin"},{"id":"320000","parent_id":"0","name":"\u6c5f\u82cf\u7701","first_letter":"J","name_en":"jiangsu"},{"id":"360000","parent_id":"0","name":"\u6c5f\u897f\u7701","first_letter":"J","name_en":"jiangxi"},{"id":"210000","parent_id":"0","name":"\u8fbd\u5b81\u7701","first_letter":"L","name_en":"liaoning"},{"id":"640000","parent_id":"0","name":"\u5b81\u590f\u56de\u65cf\u81ea\u6cbb\u533a","first_letter":"N","name_en":"ningxiahuizuzizhiqu"},{"id":"150000","parent_id":"0","name":"\u5185\u8499\u53e4\u81ea\u6cbb\u533a","first_letter":"N","name_en":"neimengguzizhiqu"},{"id":"630000","parent_id":"0","name":"\u9752\u6d77\u7701","first_letter":"Q","name_en":"qinghai"},{"id":"510000","parent_id":"0","name":"\u56db\u5ddd\u7701","first_letter":"S","name_en":"sichuan"},{"id":"610000","parent_id":"0","name":"\u9655\u897f\u7701","first_letter":"S","name_en":"shanxi"},{"id":"140000","parent_id":"0","name":"\u5c71\u897f\u7701","first_letter":"S","name_en":"shanxi"},{"id":"310000","parent_id":"0","name":"\u4e0a\u6d77\u5e02","first_letter":"S","name_en":"shanghai"},{"id":"370000","parent_id":"0","name":"\u5c71\u4e1c\u7701","first_letter":"S","name_en":"shandong"},{"id":"710000","parent_id":"0","name":"\u53f0\u6e7e\u7701","first_letter":"T","name_en":"taiwan"},{"id":"120000","parent_id":"0","name":"\u5929\u6d25\u5e02","first_letter":"T","name_en":"tianjin"},{"id":"810000","parent_id":"0","name":"\u9999\u6e2f\u7279\u522b\u884c\u653f\u533a","first_letter":"X","name_en":"xianggangtebeixingzhengqu"},{"id":"540000","parent_id":"0","name":"\u897f\u85cf\u81ea\u6cbb\u533a","first_letter":"X","name_en":"xizangzizhiqu"},{"id":"650000","parent_id":"0","name":"\u65b0\u7586\u7ef4\u543e\u5c14\u81ea\u6cbb\u533a","first_letter":"X","name_en":"xinjiangweiwuerzizhiqu"},{"id":"530000","parent_id":"0","name":"\u4e91\u5357\u7701","first_letter":"Y","name_en":"yunnan"},{"id":"330000","parent_id":"0","name":"\u6d59\u6c5f\u7701","first_letter":"Z","name_en":"zhejiang"}]}