{"status":1,"data":[{"id":"340800","parent_id":"340000","name":"\u5b89\u5e86\u5e02","first_letter":"A","name_en":"anqing"},{"id":"340300","parent_id":"340000","name":"\u868c\u57e0\u5e02","first_letter":"B","name_en":"bengbu"},{"id":"341600","parent_id":"340000","name":"\u4eb3\u5dde\u5e02","first_letter":"B","name_en":"bozhou"},{"id":"341700","parent_id":"340000","name":"\u6c60\u5dde\u5e02","first_letter":"C","name_en":"chizhou"},{"id":"341400","parent_id":"340000","name":"\u5de2\u6e56\u5e02","first_letter":"C","name_en":"chaohu"},{"id":"341100","parent_id":"340000","name":"\u6ec1\u5dde\u5e02","first_letter":"C","name_en":"chuzhou"},{"id":"341200","parent_id":"340000","name":"\u961c\u9633\u5e02","first_letter":"F","name_en":"fuyang"},{"id":"340100","parent_id":"340000","name":"\u5408\u80a5\u5e02","first_letter":"H","name_en":"hefei"},{"id":"341000","parent_id":"340000","name":"\u9ec4\u5c71\u5e02","first_letter":"H","name_en":"huangshan"},{"id":"340400","parent_id":"340000","name":"\u6dee\u5357\u5e02","first_letter":"H","name_en":"huainan"},{"id":"340600","parent_id":"340000","name":"\u6dee\u5317\u5e02","first_letter":"H","name_en":"huaibei"},{"id":"341500","parent_id":"340000","name":"\u516d\u5b89\u5e02","first_letter":"L","name_en":"liuan"},{"id":"340500","parent_id":"340000","name":"\u9a6c\u978d\u5c71\u5e02","first_letter":"M","name_en":"maanshan"},{"id":"341300","parent_id":"340000","name":"\u5bbf\u5dde\u5e02","first_letter":"S","name_en":"xiuzhou"},{"id":"340700","parent_id":"340000","name":"\u94dc\u9675\u5e02","first_letter":"T","name_en":"tongling"},{"id":"340200","parent_id":"340000","name":"\u829c\u6e56\u5e02","first_letter":"W","name_en":"wuhu"},{"id":"341800","parent_id":"340000","name":"\u5ba3\u57ce\u5e02","first_letter":"X","name_en":"xuancheng"}]}